[{"OBJECT_NAME":"GSAT0218 (GALILEO 22)","OBJECT_ID":"2017-079D","EPOCH":"2026-04-04T06:02:26.671776","MEAN_MOTION":1.70474764,"ECCENTRICITY":0.00025455,"INCLINATION":55.097,"RA_OF_ASC_NODE":223.5349,"ARG_OF_PERICENTER":284.371,"MEAN_ANOMALY":75.5576,"EPHEMERIS_TYPE":0,"CLASSIFICATION_TYPE":"U","NORAD_CAT_ID":43058,"ELEMENT_SET_NO":999,"REV_AT_EPOCH":5175,"BSTAR":0,"MEAN_MOTION_DOT":-8.0e-8,"MEAN_MOTION_DDOT":0},{"OBJECT_NAME":"GOES 17","OBJECT_ID":"2018-022A","EPOCH":"2026-04-05T14:01:51.192192","MEAN_MOTION":1.00271532,"ECCENTRICITY":0.0001188,"INCLINATION":0.7512,"RA_OF_ASC_NODE":86.7858,"ARG_OF_PERICENTER":260.2628,"MEAN_ANOMALY":327.7985,"EPHEMERIS_TYPE":0,"CLASSIFICATION_TYPE":"U","NORAD_CAT_ID":43226,"ELEMENT_SET_NO":999,"REV_AT_EPOCH":2969,"BSTAR":0,"MEAN_MOTION_DOT":-1.81e-6,"MEAN_MOTION_DDOT":0},{"OBJECT_NAME":"GSAT0221 (GALILEO 25)","OBJECT_ID":"2018-060A","EPOCH":"2026-04-05T07:53:05.628768","MEAN_MOTION":1.70475749,"ECCENTRICITY":0.0004463,"INCLINATION":57.1918,"RA_OF_ASC_NODE":343.7499,"ARG_OF_PERICENTER":316.7214,"MEAN_ANOMALY":43.2907,"EPHEMERIS_TYPE":0,"CLASSIFICATION_TYPE":"U","NORAD_CAT_ID":43564,"ELEMENT_SET_NO":999,"REV_AT_EPOCH":4792,"BSTAR":0,"MEAN_MOTION_DOT":-9.2e-7,"MEAN_MOTION_DDOT":0},{"OBJECT_NAME":"GSAT0222 (GALILEO 26)","OBJECT_ID":"2018-060B","EPOCH":"2026-04-03T04:50:28.857696","MEAN_MOTION":1.70475247,"ECCENTRICITY":0.0002935,"INCLINATION":57.1971,"RA_OF_ASC_NODE":343.8104,"ARG_OF_PERICENTER":285.5245,"MEAN_ANOMALY":74.4895,"EPHEMERIS_TYPE":0,"CLASSIFICATION_TYPE":"U","NORAD_CAT_ID":43565,"ELEMENT_SET_NO":999,"REV_AT_EPOCH":4793,"BSTAR":0,"MEAN_MOTION_DOT":-9.6e-7,"MEAN_MOTION_DDOT":0},{"OBJECT_NAME":"GSAT0219 (GALILEO 23)","OBJECT_ID":"2018-060C","EPOCH":"2026-04-04T14:18:05.334912","MEAN_MOTION":1.70475577,"ECCENTRICITY":0.00040319,"INCLINATION":57.1954,"RA_OF_ASC_NODE":343.7746,"ARG_OF_PERICENTER":327.6445,"MEAN_ANOMALY":32.378,"EPHEMERIS_TYPE":0,"CLASSIFICATION_TYPE":"U","NORAD_CAT_ID":43566,"ELEMENT_SET_NO":999,"REV_AT_EPOCH":4793,"BSTAR":0,"MEAN_MOTION_DOT":-9.4e-7,"MEAN_MOTION_DDOT":0},{"OBJECT_NAME":"GSAT0220 (GALILEO 24)","OBJECT_ID":"2018-060D","EPOCH":"2026-04-02T11:17:30.089760","MEAN_MOTION":1.70475758,"ECCENTRICITY":0.00046012,"INCLINATION":57.1953,"RA_OF_ASC_NODE":343.8319,"ARG_OF_PERICENTER":318.6748,"MEAN_ANOMALY":41.336,"EPHEMERIS_TYPE":0,"CLASSIFICATION_TYPE":"U","NORAD_CAT_ID":43567,"ELEMENT_SET_NO":999,"REV_AT_EPOCH":4788,"BSTAR":0,"MEAN_MOTION_DOT":-9.7e-7,"MEAN_MOTION_DDOT":0},{"OBJECT_NAME":"BEIDOU-3 M13","OBJECT_ID":"2018-072A","EPOCH":"2026-04-04T23:20:58.102080","MEAN_MOTION":1.86231084,"ECCENTRICITY":0.0009111,"INCLINATION":56.563,"RA_OF_ASC_NODE":65.0735,"ARG_OF_PERICENTER":313.8269,"MEAN_ANOMALY":46.0701,"EPHEMERIS_TYPE":0,"CLASSIFICATION_TYPE":"U","NORAD_CAT_ID":43622,"ELEMENT_SET_NO":999,"REV_AT_EPOCH":5129,"BSTAR":0,"MEAN_MOTION_DOT":-3.9e-7,"MEAN_MOTION_DDOT":0},{"OBJECT_NAME":"BEIDOU-3 M14","OBJECT_ID":"2018-072B","EPOCH":"2026-04-05T09:00:25.704000","MEAN_MOTION":1.86231179,"ECCENTRICITY":0.0006896,"INCLINATION":56.5652,"RA_OF_ASC_NODE":65.0544,"ARG_OF_PERICENTER":335.0878,"MEAN_ANOMALY":24.8517,"EPHEMERIS_TYPE":0,"CLASSIFICATION_TYPE":"U","NORAD_CAT_ID":43623,"ELEMENT_SET_NO":999,"REV_AT_EPOCH":5129,"BSTAR":0,"MEAN_MOTION_DOT":-3.6e-7,"MEAN_MOTION_DDOT":0},{"OBJECT_NAME":"GPS BIII-1","OBJECT_ID":"2018-109A","EPOCH":"2026-04-05T21:06:25.661952","MEAN_MOTION":2.00558485,"ECCENTRICITY":0.0038017,"INCLINATION":55.6373,"RA_OF_ASC_NODE":95.0375,"ARG_OF_PERICENTER":198.9014,"MEAN_ANOMALY":275.9572,"EPHEMERIS_TYPE":0,"CLASSIFICATION_TYPE":"U","NORAD_CAT_ID":43873,"ELEMENT_SET_NO":999,"REV_AT_EPOCH":5362,"BSTAR":0,"MEAN_MOTION_DOT":9.0e-8,"MEAN_MOTION_DDOT":0},{"OBJECT_NAME":"METEOR-M2 2","OBJECT_ID":"2019-038A","EPOCH":"2026-04-05T21:22:27.128064","MEAN_MOTION":14.2434453,"ECCENTRICITY":7.21e-5,"INCLINATION":98.912,"RA_OF_ASC_NODE":82.1235,"ARG_OF_PERICENTER":165.651,"MEAN_ANOMALY":194.4689,"EPHEMERIS_TYPE":0,"CLASSIFICATION_TYPE":"U","NORAD_CAT_ID":44387,"ELEMENT_SET_NO":999,"REV_AT_EPOCH":35100,"BSTAR":-1.8634e-5,"MEAN_MOTION_DOT":-8.9e-7,"MEAN_MOTION_DDOT":0},{"OBJECT_NAME":"GPS BIII-2","OBJECT_ID":"2019-056A","EPOCH":"2026-04-05T02:21:03.997152","MEAN_MOTION":2.00569081,"ECCENTRICITY":0.00587645,"INCLINATION":55.6701,"RA_OF_ASC_NODE":334.049,"ARG_OF_PERICENTER":197.6004,"MEAN_ANOMALY":334.4346,"EPHEMERIS_TYPE":0,"CLASSIFICATION_TYPE":"U","NORAD_CAT_ID":44506,"ELEMENT_SET_NO":999,"REV_AT_EPOCH":4860,"BSTAR":0,"MEAN_MOTION_DOT":-9.0e-7,"MEAN_MOTION_DDOT":0},{"OBJECT_NAME":"BEIDOU-3 M24","OBJECT_ID":"2019-061A","EPOCH":"2026-04-04T16:18:39.667392","MEAN_MOTION":1.86229007,"ECCENTRICITY":0.00081135,"INCLINATION":54.3962,"RA_OF_ASC_NODE":185.2068,"ARG_OF_PERICENTER":12.5163,"MEAN_ANOMALY":347.5468,"EPHEMERIS_TYPE":0,"CLASSIFICATION_TYPE":"U","NORAD_CAT_ID":44542,"ELEMENT_SET_NO":999,"REV_AT_EPOCH":4442,"BSTAR":0,"MEAN_MOTION_DOT":1.5e-7,"MEAN_MOTION_DDOT":0},{"OBJECT_NAME":"BEIDOU-3 M23","OBJECT_ID":"2019-061B","EPOCH":"2026-04-02T03:48:48.819168","MEAN_MOTION":1.86227494,"ECCENTRICITY":0.00048672,"INCLINATION":54.3946,"RA_OF_ASC_NODE":185.2604,"ARG_OF_PERICENTER":359.4431,"MEAN_ANOMALY":22.6796,"EPHEMERIS_TYPE":0,"CLASSIFICATION_TYPE":"U","NORAD_CAT_ID":44543,"ELEMENT_SET_NO":999,"REV_AT_EPOCH":4438,"BSTAR":0,"MEAN_MOTION_DOT":5.0e-8,"MEAN_MOTION_DDOT":0},{"OBJECT_NAME":"BEIDOU-3 M22","OBJECT_ID":"2019-078A","EPOCH":"2026-04-04T12:26:41.736768","MEAN_MOTION":1.86227241,"ECCENTRICITY":0.00075582,"INCLINATION":54.0029,"RA_OF_ASC_NODE":302.4189,"ARG_OF_PERICENTER":42.6264,"MEAN_ANOMALY":317.4505,"EPHEMERIS_TYPE":0,"CLASSIFICATION_TYPE":"U","NORAD_CAT_ID":44793,"ELEMENT_SET_NO":999,"REV_AT_EPOCH":4327,"BSTAR":0,"MEAN_MOTION_DOT":-6.1e-7,"MEAN_MOTION_DDOT":0},{"OBJECT_NAME":"BEIDOU-3 M21","OBJECT_ID":"2019-078B","EPOCH":"2026-04-03T14:02:01.747680","MEAN_MOTION":1.8622766,"ECCENTRICITY":0.00053542,"INCLINATION":53.9768,"RA_OF_ASC_NODE":302.4147,"ARG_OF_PERICENTER":38.8071,"MEAN_ANOMALY":321.2518,"EPHEMERIS_TYPE":0,"CLASSIFICATION_TYPE":"U","NORAD_CAT_ID":44794,"ELEMENT_SET_NO":999,"REV_AT_EPOCH":4326,"BSTAR":0,"MEAN_MOTION_DOT":-6.3e-7,"MEAN_MOTION_DDOT":0},{"OBJECT_NAME":"ELEKTRO-L 3","OBJECT_ID":"2019-095A","EPOCH":"2026-04-05T20:48:38.810304","MEAN_MOTION":1.00272425,"ECCENTRICITY":0.0001386,"INCLINATION":0.0763,"RA_OF_ASC_NODE":62.006,"ARG_OF_PERICENTER":309.098,"MEAN_ANOMALY":211.1585,"EPHEMERIS_TYPE":0,"CLASSIFICATION_TYPE":"U","NORAD_CAT_ID":44903,"ELEMENT_SET_NO":999,"REV_AT_EPOCH":2298,"BSTAR":0,"MEAN_MOTION_DOT":-9.4e-7,"MEAN_MOTION_DDOT":0},{"OBJECT_NAME":"GPS BIII-3","OBJECT_ID":"2020-041A","EPOCH":"2026-04-05T16:36:27.777024","MEAN_MOTION":2.00560346,"ECCENTRICITY":0.00618,"INCLINATION":56.6261,"RA_OF_ASC_NODE":31.7566,"ARG_OF_PERICENTER":205.1302,"MEAN_ANOMALY":336.9671,"EPHEMERIS_TYPE":0,"CLASSIFICATION_TYPE":"U","NORAD_CAT_ID":45854,"ELEMENT_SET_NO":999,"REV_AT_EPOCH":4258,"BSTAR":0,"MEAN_MOTION_DOT":-8.3e-7,"MEAN_MOTION_DDOT":0}]
